{"fetched_at":"2026-07-16T17:46:29.776Z","source":"https://celestrak.org/NORAD/elements/gp.php?NAME=HAWK&FORMAT=JSON","constellation":"hawkeye-360","records":[{"OBJECT_NAME":"HAWK-A","OBJECT_ID":"2018-099H","EPOCH":"2026-07-16T02:11:41.329248","CLASSIFICATION_TYPE":"U","MEAN_MOTION":15.24971821,"ECCENTRICITY":0.0034796,"INCLINATION":97.3893,"RA_OF_ASC_NODE":248.9541,"ARG_OF_PERICENTER":180.7785,"MEAN_ANOMALY":179.3404,"EPHEMERIS_TYPE":0,"NORAD_CAT_ID":43765,"ELEMENT_SET_NO":999,"REV_AT_EPOCH":41750,"BSTAR":0.00015790699,"MEAN_MOTION_DOT":0.0000393,"MEAN_MOTION_DDOT":0},{"OBJECT_NAME":"HAWK-B","OBJECT_ID":"2018-099AN","EPOCH":"2026-07-16T03:32:41.897760","CLASSIFICATION_TYPE":"U","MEAN_MOTION":15.23121029,"ECCENTRICITY":0.0031483,"INCLINATION":97.3944,"RA_OF_ASC_NODE":248.3633,"ARG_OF_PERICENTER":198.6833,"MEAN_ANOMALY":161.3251,"EPHEMERIS_TYPE":0,"NORAD_CAT_ID":43794,"ELEMENT_SET_NO":999,"REV_AT_EPOCH":41744,"BSTAR":0.00013691158,"MEAN_MOTION_DOT":0.00003202,"MEAN_MOTION_DDOT":0},{"OBJECT_NAME":"HAWK-C","OBJECT_ID":"2018-099AT","EPOCH":"2026-07-16T06:19:57.663840","CLASSIFICATION_TYPE":"U","MEAN_MOTION":15.28500096,"ECCENTRICITY":0.00404248,"INCLINATION":97.3872,"RA_OF_ASC_NODE":250.181,"ARG_OF_PERICENTER":180.0507,"MEAN_ANOMALY":180.0736,"EPHEMERIS_TYPE":0,"NORAD_CAT_ID":43799,"ELEMENT_SET_NO":999,"REV_AT_EPOCH":41835,"BSTAR":0.00015797678,"MEAN_MOTION_DOT":0.0000441,"MEAN_MOTION_DDOT":0},{"OBJECT_NAME":"HAWK-2C","OBJECT_ID":"2021-006CT","EPOCH":"2026-07-16T03:56:48.311520","CLASSIFICATION_TYPE":"U","MEAN_MOTION":15.34995811,"ECCENTRICITY":0.00086708,"INCLINATION":97.2262,"RA_OF_ASC_NODE":240.9001,"ARG_OF_PERICENTER":98.1007,"MEAN_ANOMALY":262.1221,"EPHEMERIS_TYPE":0,"NORAD_CAT_ID":47502,"ELEMENT_SET_NO":999,"REV_AT_EPOCH":30394,"BSTAR":0.0001039955,"MEAN_MOTION_DOT":0.00003456,"MEAN_MOTION_DDOT":0},{"OBJECT_NAME":"HAWK-2A","OBJECT_ID":"2021-006CW","EPOCH":"2026-07-16T03:59:59.239104","CLASSIFICATION_TYPE":"U","MEAN_MOTION":15.35017065,"ECCENTRICITY":0.00082184,"INCLINATION":97.2304,"RA_OF_ASC_NODE":241.5969,"ARG_OF_PERICENTER":101.3926,"MEAN_ANOMALY":258.8242,"EPHEMERIS_TYPE":0,"NORAD_CAT_ID":47505,"ELEMENT_SET_NO":999,"REV_AT_EPOCH":30394,"BSTAR":0.00013860224,"MEAN_MOTION_DOT":0.00004634,"MEAN_MOTION_DDOT":0},{"OBJECT_NAME":"HAWK-2B","OBJECT_ID":"2021-006CZ","EPOCH":"2026-07-16T02:16:40.945440","CLASSIFICATION_TYPE":"U","MEAN_MOTION":15.35143831,"ECCENTRICITY":0.00087702,"INCLINATION":97.2175,"RA_OF_ASC_NODE":239.8131,"ARG_OF_PERICENTER":100.1637,"MEAN_ANOMALY":260.0596,"EPHEMERIS_TYPE":0,"NORAD_CAT_ID":47508,"ELEMENT_SET_NO":999,"REV_AT_EPOCH":30393,"BSTAR":0.00012599334,"MEAN_MOTION_DOT":0.00004223,"MEAN_MOTION_DDOT":0},{"OBJECT_NAME":"HAWK-3B","OBJECT_ID":"2021-059BE","EPOCH":"2026-07-16T02:51:02.807136","CLASSIFICATION_TYPE":"U","MEAN_MOTION":15.71923124,"ECCENTRICITY":0.00045858,"INCLINATION":97.6632,"RA_OF_ASC_NODE":36.6148,"ARG_OF_PERICENTER":194.7801,"MEAN_ANOMALY":165.3329,"EPHEMERIS_TYPE":0,"NORAD_CAT_ID":48931,"ELEMENT_SET_NO":999,"REV_AT_EPOCH":28239,"BSTAR":0.00021047482,"MEAN_MOTION_DOT":0.00027283,"MEAN_MOTION_DDOT":0},{"OBJECT_NAME":"HAWK-3C","OBJECT_ID":"2021-059BX","EPOCH":"2026-07-16T02:50:35.512512","CLASSIFICATION_TYPE":"U","MEAN_MOTION":15.71924167,"ECCENTRICITY":0.00047486,"INCLINATION":97.6746,"RA_OF_ASC_NODE":42.3495,"ARG_OF_PERICENTER":195.4013,"MEAN_ANOMALY":164.7105,"EPHEMERIS_TYPE":0,"NORAD_CAT_ID":48948,"ELEMENT_SET_NO":999,"REV_AT_EPOCH":28239,"BSTAR":0.00023694264,"MEAN_MOTION_DOT":0.00030746,"MEAN_MOTION_DDOT":0},{"OBJECT_NAME":"HAWK-3A","OBJECT_ID":"2021-059CG","EPOCH":"2026-07-16T02:50:25.727712","CLASSIFICATION_TYPE":"U","MEAN_MOTION":15.71924465,"ECCENTRICITY":0.00047401,"INCLINATION":97.669,"RA_OF_ASC_NODE":39.5308,"ARG_OF_PERICENTER":197.5833,"MEAN_ANOMALY":162.5266,"EPHEMERIS_TYPE":0,"NORAD_CAT_ID":48957,"ELEMENT_SET_NO":999,"REV_AT_EPOCH":28239,"BSTAR":0.00021549025,"MEAN_MOTION_DOT":0.00027941,"MEAN_MOTION_DDOT":0},{"OBJECT_NAME":"HAWK-5C","OBJECT_ID":"2022-057Y","EPOCH":"2026-07-15T22:20:40.497792","CLASSIFICATION_TYPE":"U","MEAN_MOTION":15.52341704,"ECCENTRICITY":0.0002731,"INCLINATION":97.6616,"RA_OF_ASC_NODE":358.4771,"ARG_OF_PERICENTER":343.5481,"MEAN_ANOMALY":16.5682,"EPHEMERIS_TYPE":0,"NORAD_CAT_ID":52754,"ELEMENT_SET_NO":999,"REV_AT_EPOCH":23080,"BSTAR":0.00019006,"MEAN_MOTION_DOT":0.00011472,"MEAN_MOTION_DDOT":0},{"OBJECT_NAME":"HAWK-5B","OBJECT_ID":"2022-057AA","EPOCH":"2026-07-16T06:04:31.818720","CLASSIFICATION_TYPE":"U","MEAN_MOTION":15.5234439,"ECCENTRICITY":0.00033681,"INCLINATION":97.663,"RA_OF_ASC_NODE":357.1743,"ARG_OF_PERICENTER":327.6499,"MEAN_ANOMALY":32.4546,"EPHEMERIS_TYPE":0,"NORAD_CAT_ID":52756,"ELEMENT_SET_NO":999,"REV_AT_EPOCH":23085,"BSTAR":0.00016882581,"MEAN_MOTION_DOT":0.00010179,"MEAN_MOTION_DDOT":0},{"OBJECT_NAME":"HAWK-5A","OBJECT_ID":"2022-057AB","EPOCH":"2026-07-16T06:04:14.710656","CLASSIFICATION_TYPE":"U","MEAN_MOTION":15.52346327,"ECCENTRICITY":0.00032371,"INCLINATION":97.6626,"RA_OF_ASC_NODE":358.0044,"ARG_OF_PERICENTER":333.3201,"MEAN_ANOMALY":26.7884,"EPHEMERIS_TYPE":0,"NORAD_CAT_ID":52757,"ELEMENT_SET_NO":999,"REV_AT_EPOCH":23085,"BSTAR":0.0001736192,"MEAN_MOTION_DOT":0.00010472,"MEAN_MOTION_DDOT":0},{"OBJECT_NAME":"HAWK-6B","OBJECT_ID":"2023-011A","EPOCH":"2026-07-16T03:58:10.783776","CLASSIFICATION_TYPE":"U","MEAN_MOTION":15.2315893,"ECCENTRICITY":0.00043024,"INCLINATION":40.4971,"RA_OF_ASC_NODE":183.018,"ARG_OF_PERICENTER":245.3906,"MEAN_ANOMALY":114.6455,"EPHEMERIS_TYPE":0,"NORAD_CAT_ID":55324,"ELEMENT_SET_NO":999,"REV_AT_EPOCH":19226,"BSTAR":0.00011131451,"MEAN_MOTION_DOT":0.0000249,"MEAN_MOTION_DDOT":0},{"OBJECT_NAME":"HAWK-6C","OBJECT_ID":"2023-011C","EPOCH":"2026-07-16T07:06:06.031296","CLASSIFICATION_TYPE":"U","MEAN_MOTION":15.23160097,"ECCENTRICITY":0.00048321,"INCLINATION":40.4963,"RA_OF_ASC_NODE":179.0925,"ARG_OF_PERICENTER":239.596,"MEAN_ANOMALY":120.4372,"EPHEMERIS_TYPE":0,"NORAD_CAT_ID":55326,"ELEMENT_SET_NO":999,"REV_AT_EPOCH":19229,"BSTAR":0.000097568552,"MEAN_MOTION_DOT":0.00002158,"MEAN_MOTION_DDOT":0},{"OBJECT_NAME":"HAWK-6A","OBJECT_ID":"2023-011D","EPOCH":"2026-07-16T07:06:09.283392","CLASSIFICATION_TYPE":"U","MEAN_MOTION":15.23159879,"ECCENTRICITY":0.00044212,"INCLINATION":40.4973,"RA_OF_ASC_NODE":180.7192,"ARG_OF_PERICENTER":236.7888,"MEAN_ANOMALY":123.2498,"EPHEMERIS_TYPE":0,"NORAD_CAT_ID":55327,"ELEMENT_SET_NO":999,"REV_AT_EPOCH":19229,"BSTAR":0.00010276227,"MEAN_MOTION_DOT":0.00002283,"MEAN_MOTION_DDOT":0},{"OBJECT_NAME":"HAWK-7A","OBJECT_ID":"2023-054P","EPOCH":"2026-07-16T04:42:23.241312","CLASSIFICATION_TYPE":"U","MEAN_MOTION":15.27638339,"ECCENTRICITY":0.00012964,"INCLINATION":97.266,"RA_OF_ASC_NODE":83.7959,"ARG_OF_PERICENTER":327.4468,"MEAN_ANOMALY":32.6692,"EPHEMERIS_TYPE":0,"NORAD_CAT_ID":56191,"ELEMENT_SET_NO":999,"REV_AT_EPOCH":18145,"BSTAR":0.00011052185,"MEAN_MOTION_DOT":0.00002914,"MEAN_MOTION_DDOT":0}]}
